[{"OBJECT_NAME":"STARLINK-36591","OBJECT_ID":"2026-016R","EPOCH":"2026-03-09T19:26:23.354592","MEAN_MOTION":15.75235344,"ECCENTRICITY":0.00013822,"INCLINATION":97.2839,"RA_OF_ASC_NODE":129.3246,"ARG_OF_PERICENTER":95.7358,"MEAN_ANOMALY":264.4065,"EPHEMERIS_TYPE":0,"CLASSIFICATION_TYPE":"U","NORAD_CAT_ID":67576,"ELEMENT_SET_NO":999,"REV_AT_EPOCH":682,"BSTAR":0.0014401147,"MEAN_MOTION_DOT":0.0022075,"MEAN_MOTION_DDOT":0},{"OBJECT_NAME":"OBJECT AA","OBJECT_ID":"2018-111AA","EPOCH":"2026-03-09T23:36:11.109888","MEAN_MOTION":15.74757696,"ECCENTRICITY":0.00074829,"INCLINATION":96.9708,"RA_OF_ASC_NODE":294.3811,"ARG_OF_PERICENTER":159.1179,"MEAN_ANOMALY":201.0394,"EPHEMERIS_TYPE":0,"CLASSIFICATION_TYPE":"U","NORAD_CAT_ID":43900,"ELEMENT_SET_NO":999,"REV_AT_EPOCH":40295,"BSTAR":0.00046694108,"MEAN_MOTION_DOT":0.00068892,"MEAN_MOTION_DDOT":0}]
